[{"OBJECT_NAME":"STARLINK-5306","OBJECT_ID":"2023-010C","EPOCH":"2025-10-26T15:19:07.347936","MEAN_MOTION":14.98322106,"ECCENTRICITY":0.00029931,"INCLINATION":70.0011,"RA_OF_ASC_NODE":22.5562,"ARG_OF_PERICENTER":265.1879,"MEAN_ANOMALY":94.8938,"EPHEMERIS_TYPE":0,"CLASSIFICATION_TYPE":"U","NORAD_CAT_ID":55271,"ELEMENT_SET_NO":999,"REV_AT_EPOCH":15270,"BSTAR":1.0587031e-5,"MEAN_MOTION_DOT":3.3e-7,"MEAN_MOTION_DDOT":0},{"OBJECT_NAME":"STARLINK-5310","OBJECT_ID":"2023-010D","EPOCH":"2025-10-26T22:55:44.400000","MEAN_MOTION":14.98331604,"ECCENTRICITY":0.00032457,"INCLINATION":70.0012,"RA_OF_ASC_NODE":21.6595,"ARG_OF_PERICENTER":270.6956,"MEAN_ANOMALY":89.3831,"EPHEMERIS_TYPE":0,"CLASSIFICATION_TYPE":"U","NORAD_CAT_ID":55272,"ELEMENT_SET_NO":999,"REV_AT_EPOCH":15275,"BSTAR":1.348189e-5,"MEAN_MOTION_DOT":6.8e-7,"MEAN_MOTION_DDOT":0},{"OBJECT_NAME":"STARLINK-5291","OBJECT_ID":"2023-010E","EPOCH":"2025-10-26T15:55:07.728096","MEAN_MOTION":14.98325277,"ECCENTRICITY":0.00029733,"INCLINATION":70.0005,"RA_OF_ASC_NODE":22.2473,"ARG_OF_PERICENTER":273.6574,"MEAN_ANOMALY":86.4245,"EPHEMERIS_TYPE":0,"CLASSIFICATION_TYPE":"U","NORAD_CAT_ID":55273,"ELEMENT_SET_NO":999,"REV_AT_EPOCH":15271,"BSTAR":0.00025727669,"MEAN_MOTION_DOT":2.978e-5,"MEAN_MOTION_DDOT":0},{"OBJECT_NAME":"STARLINK-5236","OBJECT_ID":"2023-010F","EPOCH":"2025-10-26T21:25:18.948288","MEAN_MOTION":14.9833094,"ECCENTRICITY":0.0003179,"INCLINATION":69.9999,"RA_OF_ASC_NODE":1.9714,"ARG_OF_PERICENTER":268.1367,"MEAN_ANOMALY":91.9428,"EPHEMERIS_TYPE":0,"CLASSIFICATION_TYPE":"U","NORAD_CAT_ID":55274,"ELEMENT_SET_NO":999,"REV_AT_EPOCH":15323,"BSTAR":8.9422281e-5,"MEAN_MOTION_DOT":9.74e-6,"MEAN_MOTION_DDOT":0},{"OBJECT_NAME":"STARLINK-5260","OBJECT_ID":"2023-010G","EPOCH":"2025-10-26T21:13:30.533088","MEAN_MOTION":14.9833429,"ECCENTRICITY":0.00031262,"INCLINATION":70.0017,"RA_OF_ASC_NODE":1.9444,"ARG_OF_PERICENTER":271.2191,"MEAN_ANOMALY":88.861,"EPHEMERIS_TYPE":0,"CLASSIFICATION_TYPE":"U","NORAD_CAT_ID":55275,"ELEMENT_SET_NO":999,"REV_AT_EPOCH":15323,"BSTAR":0.00023625712,"MEAN_MOTION_DOT":2.727e-5,"MEAN_MOTION_DDOT":0},{"OBJECT_NAME":"STARLINK-5261","OBJECT_ID":"2023-010H","EPOCH":"2025-10-26T21:13:16.360032","MEAN_MOTION":14.98330902,"ECCENTRICITY":0.00031723,"INCLINATION":70,"RA_OF_ASC_NODE":1.9423,"ARG_OF_PERICENTER":271.6974,"MEAN_ANOMALY":88.3822,"EPHEMERIS_TYPE":0,"CLASSIFICATION_TYPE":"U","NORAD_CAT_ID":55276,"ELEMENT_SET_NO":999,"REV_AT_EPOCH":15322,"BSTAR":1.0310404e-5,"MEAN_MOTION_DOT":3.0e-7,"MEAN_MOTION_DDOT":0},{"OBJECT_NAME":"STARLINK-5299","OBJECT_ID":"2023-010J","EPOCH":"2025-10-26T15:01:08.177376","MEAN_MOTION":14.98297091,"ECCENTRICITY":0.0003125,"INCLINATION":70.0013,"RA_OF_ASC_NODE":22.5126,"ARG_OF_PERICENTER":271.0232,"MEAN_ANOMALY":89.0569,"EPHEMERIS_TYPE":0,"CLASSIFICATION_TYPE":"U","NORAD_CAT_ID":55277,"ELEMENT_SET_NO":999,"REV_AT_EPOCH":15270,"BSTAR":-0.00034483749,"MEAN_MOTION_DOT":-4.202e-5,"MEAN_MOTION_DDOT":0},{"OBJECT_NAME":"STARLINK-5289","OBJECT_ID":"2023-010K","EPOCH":"2025-10-26T22:37:42.860352","MEAN_MOTION":14.98329731,"ECCENTRICITY":0.0002717,"INCLINATION":70.0007,"RA_OF_ASC_NODE":21.6143,"ARG_OF_PERICENTER":268.889,"MEAN_ANOMALY":91.1957,"EPHEMERIS_TYPE":0,"CLASSIFICATION_TYPE":"U","NORAD_CAT_ID":55278,"ELEMENT_SET_NO":999,"REV_AT_EPOCH":15274,"BSTAR":6.2837471e-5,"MEAN_MOTION_DOT":6.57e-6,"MEAN_MOTION_DDOT":0},{"OBJECT_NAME":"STARLINK-5331","OBJECT_ID":"2023-010M","EPOCH":"2025-10-26T15:31:08.114880","MEAN_MOTION":14.98344569,"ECCENTRICITY":0.00031292,"INCLINATION":70.0004,"RA_OF_ASC_NODE":22.5763,"ARG_OF_PERICENTER":268.9547,"MEAN_ANOMALY":91.1253,"EPHEMERIS_TYPE":0,"CLASSIFICATION_TYPE":"U","NORAD_CAT_ID":55280,"ELEMENT_SET_NO":999,"REV_AT_EPOCH":15269,"BSTAR":0.00021147651,"MEAN_MOTION_DOT":2.432e-5,"MEAN_MOTION_DDOT":0},{"OBJECT_NAME":"STARLINK-5298","OBJECT_ID":"2023-010N","EPOCH":"2025-10-26T14:49:03.618336","MEAN_MOTION":14.98328402,"ECCENTRICITY":0.00030371,"INCLINATION":70.0008,"RA_OF_ASC_NODE":22.4836,"ARG_OF_PERICENTER":267.4778,"MEAN_ANOMALY":92.6033,"EPHEMERIS_TYPE":0,"CLASSIFICATION_TYPE":"U","NORAD_CAT_ID":55281,"ELEMENT_SET_NO":999,"REV_AT_EPOCH":15269,"BSTAR":1.595915e-5,"MEAN_MOTION_DOT":9.7e-7,"MEAN_MOTION_DDOT":0},{"OBJECT_NAME":"STARLINK-5330","OBJECT_ID":"2023-010P","EPOCH":"2025-10-26T15:49:21.944064","MEAN_MOTION":14.98328776,"ECCENTRICITY":0.00030449,"INCLINATION":70.0006,"RA_OF_ASC_NODE":22.225,"ARG_OF_PERICENTER":270.4317,"MEAN_ANOMALY":89.6493,"EPHEMERIS_TYPE":0,"CLASSIFICATION_TYPE":"U","NORAD_CAT_ID":55282,"ELEMENT_SET_NO":999,"REV_AT_EPOCH":15270,"BSTAR":7.7057669e-5,"MEAN_MOTION_DOT":8.27e-6,"MEAN_MOTION_DDOT":0},{"OBJECT_NAME":"STARLINK-5317","OBJECT_ID":"2023-010Q","EPOCH":"2025-10-26T22:43:43.011840","MEAN_MOTION":14.98330446,"ECCENTRICITY":0.00030439,"INCLINATION":70.0007,"RA_OF_ASC_NODE":21.6283,"ARG_OF_PERICENTER":269.4267,"MEAN_ANOMALY":90.6543,"EPHEMERIS_TYPE":0,"CLASSIFICATION_TYPE":"U","NORAD_CAT_ID":55283,"ELEMENT_SET_NO":999,"REV_AT_EPOCH":15274,"BSTAR":4.688e-8,"MEAN_MOTION_DOT":-9.2e-7,"MEAN_MOTION_DDOT":0},{"OBJECT_NAME":"STARLINK-5337","OBJECT_ID":"2023-010R","EPOCH":"2025-10-26T15:49:07.536000","MEAN_MOTION":14.98332004,"ECCENTRICITY":0.00030219,"INCLINATION":70.0006,"RA_OF_ASC_NODE":22.224,"ARG_OF_PERICENTER":270.0634,"MEAN_ANOMALY":90.0179,"EPHEMERIS_TYPE":0,"CLASSIFICATION_TYPE":"U","NORAD_CAT_ID":55284,"ELEMENT_SET_NO":999,"REV_AT_EPOCH":15269,"BSTAR":0.00010912596,"MEAN_MOTION_DOT":1.209e-5,"MEAN_MOTION_DDOT":0},{"OBJECT_NAME":"STARLINK-5332","OBJECT_ID":"2023-010S","EPOCH":"2025-10-26T20:01:04.917216","MEAN_MOTION":14.983309,"ECCENTRICITY":0.00038951,"INCLINATION":69.9994,"RA_OF_ASC_NODE":341.8775,"ARG_OF_PERICENTER":267.4715,"MEAN_ANOMALY":92.5998,"EPHEMERIS_TYPE":0,"CLASSIFICATION_TYPE":"U","NORAD_CAT_ID":55285,"ELEMENT_SET_NO":999,"REV_AT_EPOCH":15459,"BSTAR":8.8985376e-5,"MEAN_MOTION_DOT":9.69e-6,"MEAN_MOTION_DDOT":0},{"OBJECT_NAME":"STARLINK-5338","OBJECT_ID":"2023-010T","EPOCH":"2025-10-26T21:01:15.403872","MEAN_MOTION":14.98331677,"ECCENTRICITY":0.00028433,"INCLINATION":70.0002,"RA_OF_ASC_NODE":1.9139,"ARG_OF_PERICENTER":270.8524,"MEAN_ANOMALY":89.2309,"EPHEMERIS_TYPE":0,"CLASSIFICATION_TYPE":"U","NORAD_CAT_ID":55286,"ELEMENT_SET_NO":999,"REV_AT_EPOCH":15322,"BSTAR":9.8062897e-5,"MEAN_MOTION_DOT":1.077e-5,"MEAN_MOTION_DDOT":0},{"OBJECT_NAME":"STARLINK-5341","OBJECT_ID":"2023-010U","EPOCH":"2025-10-26T13:12:16.051392","MEAN_MOTION":14.98334401,"ECCENTRICITY":0.00028798,"INCLINATION":70,"RA_OF_ASC_NODE":342.8169,"ARG_OF_PERICENTER":266.086,"MEAN_ANOMALY":93.997,"EPHEMERIS_TYPE":0,"CLASSIFICATION_TYPE":"U","NORAD_CAT_ID":55287,"ELEMENT_SET_NO":999,"REV_AT_EPOCH":15366,"BSTAR":-0.00021674568,"MEAN_MOTION_DOT":-2.678e-5,"MEAN_MOTION_DDOT":0},{"OBJECT_NAME":"STARLINK-5311","OBJECT_ID":"2023-010V","EPOCH":"2025-10-26T14:18:57.765024","MEAN_MOTION":14.98307384,"ECCENTRICITY":0.00033343,"INCLINATION":70.0008,"RA_OF_ASC_NODE":2.5398,"ARG_OF_PERICENTER":271.1556,"MEAN_ANOMALY":88.9221,"EPHEMERIS_TYPE":0,"CLASSIFICATION_TYPE":"U","NORAD_CAT_ID":55288,"ELEMENT_SET_NO":999,"REV_AT_EPOCH":15318,"BSTAR":-0.00018037352,"MEAN_MOTION_DOT":-2.243e-5,"MEAN_MOTION_DDOT":0},{"OBJECT_NAME":"STARLINK-5320","OBJECT_ID":"2023-010W","EPOCH":"2025-10-26T21:07:15.892320","MEAN_MOTION":14.98328913,"ECCENTRICITY":0.00028991,"INCLINATION":70,"RA_OF_ASC_NODE":1.9271,"ARG_OF_PERICENTER":271.0986,"MEAN_ANOMALY":88.9841,"EPHEMERIS_TYPE":0,"CLASSIFICATION_TYPE":"U","NORAD_CAT_ID":55289,"ELEMENT_SET_NO":999,"REV_AT_EPOCH":15322,"BSTAR":-7.073596e-6,"MEAN_MOTION_DOT":-1.77e-6,"MEAN_MOTION_DDOT":0},{"OBJECT_NAME":"STARLINK-5266","OBJECT_ID":"2023-010X","EPOCH":"2025-10-26T14:30:41.355648","MEAN_MOTION":14.98340044,"ECCENTRICITY":0.00030846,"INCLINATION":70.0003,"RA_OF_ASC_NODE":2.5719,"ARG_OF_PERICENTER":264.5352,"MEAN_ANOMALY":95.5455,"EPHEMERIS_TYPE":0,"CLASSIFICATION_TYPE":"U","NORAD_CAT_ID":55290,"ELEMENT_SET_NO":999,"REV_AT_EPOCH":15318,"BSTAR":0.00020697384,"MEAN_MOTION_DOT":2.378e-5,"MEAN_MOTION_DDOT":0},{"OBJECT_NAME":"STARLINK-5327","OBJECT_ID":"2023-010Y","EPOCH":"2025-10-26T21:19:17.387616","MEAN_MOTION":14.98327616,"ECCENTRICITY":0.00030782,"INCLINATION":70.0001,"RA_OF_ASC_NODE":1.9542,"ARG_OF_PERICENTER":272.1121,"MEAN_ANOMALY":87.9686,"EPHEMERIS_TYPE":0,"CLASSIFICATION_TYPE":"U","NORAD_CAT_ID":55291,"ELEMENT_SET_NO":999,"REV_AT_EPOCH":15322,"BSTAR":-5.018828e-6,"MEAN_MOTION_DOT":-1.53e-6,"MEAN_MOTION_DDOT":0},{"OBJECT_NAME":"STARLINK-5325","OBJECT_ID":"2023-010Z","EPOCH":"2025-10-26T22:13:20.748576","MEAN_MOTION":14.98331777,"ECCENTRICITY":0.00033318,"INCLINATION":70.0005,"RA_OF_ASC_NODE":1.6826,"ARG_OF_PERICENTER":269.1047,"MEAN_ANOMALY":90.9731,"EPHEMERIS_TYPE":0,"CLASSIFICATION_TYPE":"U","NORAD_CAT_ID":55292,"ELEMENT_SET_NO":999,"REV_AT_EPOCH":15323,"BSTAR":8.2070442e-5,"MEAN_MOTION_DOT":8.86e-6,"MEAN_MOTION_DDOT":0},{"OBJECT_NAME":"STARLINK-5287","OBJECT_ID":"2023-010AA","EPOCH":"2025-10-26T14:18:41.208192","MEAN_MOTION":14.98331657,"ECCENTRICITY":0.0002975,"INCLINATION":70.0006,"RA_OF_ASC_NODE":2.5396,"ARG_OF_PERICENTER":264.0516,"MEAN_ANOMALY":96.0304,"EPHEMERIS_TYPE":0,"CLASSIFICATION_TYPE":"U","NORAD_CAT_ID":55293,"ELEMENT_SET_NO":999,"REV_AT_EPOCH":15318,"BSTAR":-5.0952754e-5,"MEAN_MOTION_DOT":-7.01e-6,"MEAN_MOTION_DDOT":0},{"OBJECT_NAME":"STARLINK-5286","OBJECT_ID":"2023-010AB","EPOCH":"2025-10-26T22:25:41.124000","MEAN_MOTION":14.98330223,"ECCENTRICITY":0.00031359,"INCLINATION":70.0005,"RA_OF_ASC_NODE":21.5799,"ARG_OF_PERICENTER":271.2135,"MEAN_ANOMALY":88.8665,"EPHEMERIS_TYPE":0,"CLASSIFICATION_TYPE":"U","NORAD_CAT_ID":55294,"ELEMENT_SET_NO":999,"REV_AT_EPOCH":15274,"BSTAR":2.105007e-5,"MEAN_MOTION_DOT":1.58e-6,"MEAN_MOTION_DDOT":0}]
